[Satellite]
VERSION=1.1
NAME=GLOBALSTAR M059
NICKNAME=GLOBALSTAR M059
TLE1=1 25944U 99058B   17186.29093803 -.00000075  00000-0  13905-3 0  9996
TLE2=2 25944  52.0005 142.6384 0000905 353.5359 153.8714 11.99920089225436
